[{"OBJECT_NAME":"STARLINK-2128","OBJECT_ID":"2021-005BH","EPOCH":"2026-03-09T22:00:01.999584","MEAN_MOTION":15.60188382,"ECCENTRICITY":0.00044922,"INCLINATION":53.0533,"RA_OF_ASC_NODE":14.9701,"ARG_OF_PERICENTER":123.8508,"MEAN_ANOMALY":68.763,"EPHEMERIS_TYPE":0,"CLASSIFICATION_TYPE":"U","NORAD_CAT_ID":47404,"ELEMENT_SET_NO":999,"REV_AT_EPOCH":592,"BSTAR":0.0018166988,"MEAN_MOTION_DOT":0.00153048,"MEAN_MOTION_DDOT":0},{"OBJECT_NAME":"FLOCK 4Q-15","OBJECT_ID":"2023-174BR","EPOCH":"2026-03-09T17:07:14.348064","MEAN_MOTION":15.6037578,"ECCENTRICITY":0.00042292,"INCLINATION":97.3891,"RA_OF_ASC_NODE":159.5991,"ARG_OF_PERICENTER":148.7348,"MEAN_ANOMALY":211.4161,"EPHEMERIS_TYPE":0,"CLASSIFICATION_TYPE":"U","NORAD_CAT_ID":58319,"ELEMENT_SET_NO":999,"REV_AT_EPOCH":13047,"BSTAR":0.0015054083,"MEAN_MOTION_DOT":0.00124969,"MEAN_MOTION_DDOT":0}]
